OBJECT_NAME,OBJECT_ID,EPOCH,MEAN_MOTION,ECCENTRICITY,INCLINATION,RA_OF_ASC_NODE,ARG_OF_PERICENTER,MEAN_ANOMALY,EPHEMERIS_TYPE,CLASSIFICATION_TYPE,NORAD_CAT_ID,ELEMENT_SET_NO,REV_AT_EPOCH,BSTAR,MEAN_MOTION_DOT,MEAN_MOTION_DDOT
STARLINK-37237,2026-114D,2026-06-18T02:25:34.083552,15.78099388,.00008357,53.1569,197.8888,86.1523,273.9594,0,U,69185,999,491,.12619998E-2,.224758E-2,0
STARLINK-37365,2026-114E,2026-06-18T06:59:36.991968,15.78095346,.00011707,53.1570,196.9422,120.7347,239.3790,0,U,69186,999,494,.79049187E-3,.13909E-2,0
STARLINK-37209,2026-114F,2026-06-17T21:51:18.857952,15.78126749,.00006292,53.1571,198.8343,43.9691,316.1381,0,U,69187,999,488,.13509503E-2,.241421E-2,0
STARLINK-37359,2026-114G,2026-06-18T02:24:16.149024,15.78110735,.00012975,53.1569,197.8834,97.4078,262.7091,0,U,69188,999,491,.11905892E-2,.211783E-2,0
STARLINK-37440,2026-114H,2026-06-18T06:00:02.000160,15.68360375,.00007513,53.1598,196.6534,82.5897,282.5262,0,U,69189,999,498,-.22224022E-1,-.221117E-1,0
STARLINK-37282,2026-114J,2026-06-18T02:14:58.755840,15.78102150,.00009592,53.1570,197.8388,82.7702,277.3428,0,U,69190,999,491,.13563761E-2,.242144E-2,0
STARLINK-37422,2026-114K,2026-06-17T21:13:53.861088,15.80954909,.00008907,53.1573,198.6611,114.9606,245.1509,0,U,69191,999,488,.10753458E-2,.2178E-2,0
STARLINK-37424,2026-114L,2026-06-17T21:41:32.672832,15.78125524,.00008767,53.1565,198.7889,27.7006,332.4062,0,U,69192,999,488,.12694344E-2,.226395E-2,0
STARLINK-36666,2026-114M,2026-06-18T01:47:19.461984,15.80924932,.00011228,53.1568,197.7114,93.5558,266.5593,0,U,69193,999,491,.100294E-2,.202442E-2,0
STARLINK-37355,2026-114N,2026-06-17T13:37:56.761248,15.80981823,.0001358,53.1566,200.2399,100.6369,259.4806,0,U,69194,999,483,.10395E-2,.210601E-2,0
STARLINK-37166,2026-114P,2026-06-18T06:17:12.331392,15.80928841,.00026001,53.1567,196.7450,33.0650,327.0535,0,U,69195,999,494,.12330953E-2,.250523E-2,0
STARLINK-36933,2026-114Q,2026-06-18T06:18:17.108928,15.80821872,.00012505,53.1570,196.7505,60.1621,299.9526,0,U,69196,999,494,.10319078E-2,.207442E-2,0
STARLINK-37419,2026-114R,2026-06-18T06:16:06.776256,15.80932050,.00008952,53.1566,196.7392,36.0681,324.0402,0,U,69197,999,494,.84343882E-3,.169537E-2,0
STARLINK-37321,2026-114S,2026-06-18T06:15:00.933408,15.80902482,.00013046,53.1570,196.7358,67.4979,292.6182,0,U,69198,999,494,.10463658E-2,.211236E-2,0
STARLINK-37406,2026-114T,2026-06-16T19:20:09.151872,15.80781331,.00022241,53.1564,204.0172,59.2395,300.8847,0,U,69199,999,471,-.10705101E-4,-.2804E-4,0
STARLINK-37761,2026-114U,2026-06-18T06:00:02.000160,15.72326253,.00010563,53.1599,196.8195,91.4630,193.6880,0,U,69200,999,498,-.21847123E-1,-.2574826E-1,0
STARLINK-37754,2026-114V,2026-06-18T06:00:02.000160,15.76359951,.00009026,53.1588,196.7783,88.2959,216.9082,0,U,69201,999,498,-.18919721E-1,-.2649334E-1,0
STARLINK-37649,2026-114W,2026-06-17T22:35:31.907328,15.80967989,.00007242,53.1564,198.2986,127.5007,232.6082,0,U,69202,999,489,.12060699E-2,.245301E-2,0
STARLINK-37604,2026-114X,2026-06-18T06:09:38.295936,15.80941372,.00023777,53.1564,196.7090,10.7962,349.3112,0,U,69203,999,494,.11563139E-2,.234575E-2,0
STARLINK-37669,2026-114Y,2026-06-18T06:00:02.000160,15.75583900,.00009104,53.1589,196.7536,80.6204,236.5033,0,U,69204,999,498,-.19135627E-1,-.2596602E-1,0
STARLINK-37691,2026-114Z,2026-06-18T06:32:12.571872,15.78122540,.00017612,53.1576,196.8138,11.5669,348.5392,0,U,69205,999,494,.12836031E-2,.228968E-2,0
STARLINK-37671,2026-114AA,2026-06-18T06:21:40.726080,15.78090925,.00012011,53.1582,196.7661,41.3123,318.7989,0,U,69206,999,494,.82427317E-3,.145137E-2,0
STARLINK-37647,2026-114AB,2026-06-18T06:07:28.610400,15.80931488,.00017322,53.1565,196.6991,26.5223,333.5888,0,U,69207,999,494,.11458664E-2,.232272E-2,0
STARLINK-37562,2026-114AC,2026-06-18T06:24:37.101312,15.78084583,.00016376,53.1575,196.7798,8.9510,351.1540,0,U,69208,999,494,.67532632E-3,.118383E-2,0
STARLINK-37682,2026-114AD,2026-06-17T22:27:58.210560,15.80973487,.00008021,53.1563,198.2625,117.1554,242.9551,0,U,69209,999,489,.13023584E-2,.26564E-2,0
STARLINK-37402,2026-114AE,2026-06-18T07:33:06.134112,15.80932881,.00007129,53.1563,196.3570,76.9342,283.1760,0,U,69210,999,495,.85624025E-3,.172182E-2,0
STARLINK-37613,2026-115A,2026-06-18T00:54:08.407584,15.49208527,.00010235,97.2839,186.1596,109.9870,250.1492,0,U,69211,999,479,.5383204E-3,.29316E-3,0
STARLINK-37713,2026-115B,2026-06-18T06:00:02.000160,15.49180860,.00018251,97.2849,186.5001,96.1011,303.2030,0,U,69212,999,486,-.14754698E-3,-.8105E-4,0
STARLINK-37716,2026-115C,2026-06-18T06:00:02.000160,15.49521527,.00019932,97.2845,186.5556,91.7121,77.8504,0,U,69213,999,486,-.14330365E-1,-.729641E-2,0
STARLINK-37620,2026-115D,2026-06-18T01:14:41.615520,15.49206571,.00005379,97.2836,186.1396,144.0165,216.1123,0,U,69214,999,479,.33051269E-3,.17937E-3,0
