STARLINK-37237          
1 69185U 26114D   26169.10108893  .00224758  00000+0  12620-2 0  9997
2 69185  53.1569 197.8888 0000835  86.1523 273.9594 15.78099388  4911
STARLINK-37365          
1 69186U 26114E   26169.29140037  .00139090  00000+0  79049-3 0  9997
2 69186  53.1570 196.9422 0001170 120.7347 239.3790 15.78095346  4947
STARLINK-37209          
1 69187U 26114F   26168.91063493  .00241421  00000+0  13510-2 0  9998
2 69187  53.1571 198.8343 0000629  43.9691 316.1381 15.78126749  4883
STARLINK-37359          
1 69188U 26114G   26169.10018691  .00211783  00000+0  11906-2 0  9996
2 69188  53.1569 197.8834 0001297  97.4078 262.7091 15.78110735  4916
STARLINK-37440          
1 69189U 26114H   26169.25002315 -.02211170  00000+0 -22224-1 0  9997
2 69189  53.1598 196.6534 0000751  82.5897 282.5262 15.68360375  4984
STARLINK-37282          
1 69190U 26114J   26169.09373560  .00242144  00000+0  13564-2 0  9993
2 69190  53.1570 197.8388 0000959  82.7702 277.3428 15.78102150  4918
STARLINK-37422          
1 69191U 26114K   26168.88465117  .00217800  00000+0  10753-2 0  9998
2 69191  53.1573 198.6611 0000890 114.9606 245.1509 15.80954909  4884
STARLINK-37424          
1 69192U 26114L   26168.90385038  .00226395  00000+0  12694-2 0  9990
2 69192  53.1565 198.7889 0000876  27.7006 332.4062 15.78125524  4887
STARLINK-36666          
1 69193U 26114M   26169.07453081  .00202442  00000+0  10029-2 0  9991
2 69193  53.1568 197.7114 0001122  93.5558 266.5593 15.80924932  4912
STARLINK-37355          
1 69194U 26114N   26168.56801807  .00210601  00000+0  10395-2 0  9990
2 69194  53.1566 200.2399 0001358 100.6369 259.4806 15.80981823  4838
STARLINK-37166          
1 69195U 26114P   26169.26194828  .00250523  00000+0  12331-2 0  9996
2 69195  53.1567 196.7450 0002600  33.0650 327.0535 15.80928841  4944
STARLINK-36933          
1 69196U 26114Q   26169.26269802  .00207442  00000+0  10319-2 0  9998
2 69196  53.1570 196.7505 0001250  60.1621 299.9526 15.80821872  4942
STARLINK-37419          
1 69197U 26114R   26169.26118954  .00169537  00000+0  84344-3 0  9992
2 69197  53.1566 196.7392 0000895  36.0681 324.0402 15.80932050  4948
STARLINK-37321          
1 69198U 26114S   26169.26042747  .00211236  00000+0  10464-2 0  9994
2 69198  53.1570 196.7358 0001304  67.4979 292.6182 15.80902482  4941
STARLINK-37406          
1 69199U 26114T   26167.80566148 -.00002804  00000+0 -10705-4 0  9990
2 69199  53.1564 204.0172 0002224  59.2395 300.8847 15.80781331  4718
STARLINK-37761          
1 69200U 26114U   26169.25002315 -.02574826  00000+0 -21847-1 0  9991
2 69200  53.1599 196.8195 0001056  91.4630 193.6880 15.72326253  4987
STARLINK-37754          
1 69201U 26114V   26169.25002315 -.02649334  00000+0 -18920-1 0  9997
2 69201  53.1588 196.7783 0000902  88.2959 216.9082 15.76359951  4983
STARLINK-37649          
1 69202U 26114W   26168.94134152  .00245301  00000+0  12061-2 0  9991
2 69202  53.1564 198.2986 0000724 127.5007 232.6082 15.80967989  4899
STARLINK-37604          
1 69203U 26114X   26169.25669324  .00234575  00000+0  11563-2 0  9998
2 69203  53.1564 196.7090 0002377  10.7962 349.3112 15.80941372  4942
STARLINK-37669          
1 69204U 26114Y   26169.25002315 -.02596602  00000+0 -19136-1 0  9999
2 69204  53.1589 196.7536 0000910  80.6204 236.5033 15.75583900  4987
STARLINK-37691          
1 69205U 26114Z   26169.27236773  .00228968  00000+0  12836-2 0  9993
2 69205  53.1576 196.8138 0001761  11.5669 348.5392 15.78122540  4946
STARLINK-37671          
1 69206U 26114AA  26169.26505470  .00145137  00000+0  82427-3 0  9996
2 69206  53.1582 196.7661 0001201  41.3123 318.7989 15.78090925  4941
STARLINK-37647          
1 69207U 26114AB  26169.25519225  .00232272  00000+0  11459-2 0  9992
2 69207  53.1565 196.6991 0001732  26.5223 333.5888 15.80931488  4947
STARLINK-37562          
1 69208U 26114AC  26169.26709608  .00118383  00000+0  67533-3 0  9991
2 69208  53.1575 196.7798 0001637   8.9510 351.1540 15.78084583  4945
STARLINK-37682          
1 69209U 26114AD  26168.93609040  .00265640  00000+0  13024-2 0  9998
2 69209  53.1563 198.2625 0000802 117.1554 242.9551 15.80973487  4899
STARLINK-37402          
1 69210U 26114AE  26169.31465433  .00172182  00000+0  85624-3 0  9993
2 69210  53.1563 196.3570 0000712  76.9342 283.1760 15.80932881  4955
STARLINK-37613          
1 69211U 26115A   26169.03759731  .00029316  00000+0  53832-3 0  9997
2 69211  97.2839 186.1596 0001023 109.9870 250.1492 15.49208527  4791
STARLINK-37713          
1 69212U 26115B   26169.25002315 -.00008105  00000+0 -14755-3 0  9997
2 69212  97.2849 186.5001 0001825  96.1011 303.2030 15.49180860  4867
STARLINK-37716          
1 69213U 26115C   26169.25002315 -.00729641  00000+0 -14330-1 0  9990
2 69213  97.2845 186.5556 0001993  91.7121  77.8504 15.49521527  4867
STARLINK-37620          
1 69214U 26115D   26169.05187055  .00017937  00000+0  33051-3 0  9993
2 69214  97.2836 186.1396 0000537 144.0165 216.1123 15.49206571  4795
